{
  "type": "FeatureCollection",
  "features": [
    {
      "type": "Feature",
      "properties": {
        "norad_id": 58647,
        "name": "TIANMU-1 13",
        "group": "weather",
        "lat": 73.06471297098388,
        "lon": -146.41715485071603,
        "alt_km": 488.8063949995794,
        "timestamp": "2025-12-14T20:40:31.410669+00:00",
        "meta_object_name": "TIANMU-1 13",
        "meta_object_id": "2023-205C",
        "meta_epoch": "2025-12-14T07:36:46.746144",
        "meta_mean_motion": 15.24552275,
        "meta_eccentricity": 0.00060353,
        "meta_inclination": 97.3626,
        "meta_ra_of_asc_node": 7.9195,
        "meta_arg_of_pericenter": 259.9446,
        "meta_mean_anomaly": 100.1111,
        "meta_ephemeris_type": 0,
        "meta_classification_type": "U",
        "meta_norad_cat_id": 58647,
        "meta_element_set_no": 999,
        "meta_rev_at_epoch": 10931,
        "meta_bstar": 0.00029074074,
        "meta_mean_motion_dot": 7.092e-05,
        "meta_mean_motion_ddot": 0,
        "tle_line1": "1 58647U 23205C   25348.31720771  .00007092  00000+0  29074-3 0  9994",
        "tle_line2": "2 58647  97.3626   7.9195 0006035 259.9446 100.1111 15.24552275109316"
      },
      "geometry": {
        "type": "Point",
        "coordinates": [
          -146.41715485071603,
          73.06471297098388
        ]
      }
    },
    {
      "type": "Feature",
      "properties": {
        "norad_id": 58648,
        "name": "TIANMU-1 14",
        "group": "weather",
        "lat": -16.121271388064592,
        "lon": -174.33875476770612,
        "alt_km": 495.30032325473985,
        "timestamp": "2025-12-14T20:40:31.410679+00:00",
        "meta_object_name": "TIANMU-1 14",
        "meta_object_id": "2023-205D",
        "meta_epoch": "2025-12-14T08:47:24.846720",
        "meta_mean_motion": 15.2453614,
        "meta_eccentricity": 0.00068352,
        "meta_inclination": 97.3558,
        "meta_ra_of_asc_node": 7.3149,
        "meta_arg_of_pericenter": 265.5651,
        "meta_mean_anomaly": 94.4806,
        "meta_ephemeris_type": 0,
        "meta_classification_type": "U",
        "meta_norad_cat_id": 58648,
        "meta_element_set_no": 999,
        "meta_rev_at_epoch": 10932,
        "meta_bstar": 0.00028477581,
        "meta_mean_motion_dot": 6.942e-05,
        "meta_mean_motion_ddot": 0,
        "tle_line1": "1 58648U 23205D   25348.36625980  .00006942  00000+0  28478-3 0  9996",
        "tle_line2": "2 58648  97.3558   7.3149 0006835 265.5651  94.4806 15.24536140109323"
      },
      "geometry": {
        "type": "Point",
        "coordinates": [
          -174.33875476770612,
          -16.121271388064592
        ]
      }
    },
    {
      "type": "Feature",
      "properties": {
        "norad_id": 58660,
        "name": "TIANMU-1 19",
        "group": "weather",
        "lat": 62.36445147079627,
        "lon": -65.65606345685964,
        "alt_km": 477.76134121198993,
        "timestamp": "2025-12-14T20:40:31.410696+00:00",
        "meta_object_name": "TIANMU-1 19",
        "meta_object_id": "2023-208A",
        "meta_epoch": "2025-12-14T07:35:30.911136",
        "meta_mean_motion": 15.27888997,
        "meta_eccentricity": 0.00041446,
        "meta_inclination": 97.4384,
        "meta_ra_of_asc_node": 99.35,
        "meta_arg_of_pericenter": 245.6207,
        "meta_mean_anomaly": 114.46,
        "meta_ephemeris_type": 0,
        "meta_classification_type": "U",
        "meta_norad_cat_id": 58660,
        "meta_element_set_no": 999,
        "meta_rev_at_epoch": 10906,
        "meta_bstar": 0.00037995314,
        "meta_mean_motion_dot": 0.00010275,
        "meta_mean_motion_ddot": 0,
        "tle_line1": "1 58660U 23208A   25348.31632999  .00010275  00000+0  37995-3 0  9994",
        "tle_line2": "2 58660  97.4384  99.3500 0004144 245.6207 114.4600 15.27888997109063"
      },
      "geometry": {
        "type": "Point",
        "coordinates": [
          -65.65606345685964,
          62.36445147079627
        ]
      }
    },
    {
      "type": "Feature",
      "properties": {
        "norad_id": 58661,
        "name": "TIANMU-1 20",
        "group": "weather",
        "lat": -19.878488723901253,
        "lon": -82.36171867054102,
        "alt_km": 481.4701523494832,
        "timestamp": "2025-12-14T20:40:31.410716+00:00",
        "meta_object_name": "TIANMU-1 20",
        "meta_object_id": "2023-208B",
        "meta_epoch": "2025-12-14T07:14:18.549312",
        "meta_mean_motion": 15.29079198,
        "meta_eccentricity": 0.00063214,
        "meta_inclination": 97.4322,
        "meta_ra_of_asc_node": 99.7844,
        "meta_arg_of_pericenter": 259.3553,
        "meta_mean_anomaly": 100.6975,
        "meta_ephemeris_type": 0,
        "meta_classification_type": "U",
        "meta_norad_cat_id": 58661,
        "meta_element_set_no": 999,
        "meta_rev_at_epoch": 10913,
        "meta_bstar": 0.00035553096,
        "meta_mean_motion_dot": 9.969e-05,
        "meta_mean_motion_ddot": 0,
        "tle_line1": "1 58661U 23208B   25348.30160358  .00009969  00000+0  35553-3 0  9995",
        "tle_line2": "2 58661  97.4322  99.7844 0006321 259.3553 100.6975 15.29079198109133"
      },
      "geometry": {
        "type": "Point",
        "coordinates": [
          -82.36171867054102,
          -19.878488723901253
        ]
      }
    },
    {
      "type": "Feature",
      "properties": {
        "norad_id": 58662,
        "name": "TIANMU-1 21",
        "group": "weather",
        "lat": -43.48476552243689,
        "lon": -84.85540049353754,
        "alt_km": 474.17070329170747,
        "timestamp": "2025-12-14T20:40:31.410736+00:00",
        "meta_object_name": "TIANMU-1 21",
        "meta_object_id": "2023-208C",
        "meta_epoch": "2025-12-14T07:09:23.526144",
        "meta_mean_motion": 15.3159579,
        "meta_eccentricity": 0.00058937,
        "meta_inclination": 97.437,
        "meta_ra_of_asc_node": 101.6963,
        "meta_arg_of_pericenter": 253.5757,
        "meta_mean_anomaly": 106.4837,
        "meta_ephemeris_type": 0,
        "meta_classification_type": "U",
        "meta_norad_cat_id": 58662,
        "meta_element_set_no": 999,
        "meta_rev_at_epoch": 10923,
        "meta_bstar": 0.0003898386,
        "meta_mean_motion_dot": 0.00011827,
        "meta_mean_motion_ddot": 0,
        "tle_line1": "1 58662U 23208C   25348.29818896  .00011827  00000+0  38984-3 0  9998",
        "tle_line2": "2 58662  97.4370 101.6963 0005893 253.5757 106.4837 15.31595790109233"
      },
      "geometry": {
        "type": "Point",
        "coordinates": [
          -84.85540049353754,
          -43.48476552243689
        ]
      }
    },
    {
      "type": "Feature",
      "properties": {
        "norad_id": 58663,
        "name": "TIANMU-1 22",
        "group": "weather",
        "lat": 62.99172819647621,
        "lon": -65.19705432754483,
        "alt_km": 478.44539029750104,
        "timestamp": "2025-12-14T20:40:31.410757+00:00",
        "meta_object_name": "TIANMU-1 22",
        "meta_object_id": "2023-208D",
        "meta_epoch": "2025-12-14T07:35:34.158048",
        "meta_mean_motion": 15.27640821,
        "meta_eccentricity": 0.00026511,
        "meta_inclination": 97.4378,
        "meta_ra_of_asc_node": 99.4084,
        "meta_arg_of_pericenter": 278.6902,
        "meta_mean_anomaly": 81.4037,
        "meta_ephemeris_type": 0,
        "meta_classification_type": "U",
        "meta_norad_cat_id": 58663,
        "meta_element_set_no": 999,
        "meta_rev_at_epoch": 10907,
        "meta_bstar": 0.00035716905,
        "meta_mean_motion_dot": 9.58e-05,
        "meta_mean_motion_ddot": 0,
        "tle_line1": "1 58663U 23208D   25348.31636757  .00009580  00000+0  35717-3 0  9990",
        "tle_line2": "2 58663  97.4378  99.4084 0002651 278.6902  81.4037 15.27640821109076"
      },
      "geometry": {
        "type": "Point",
        "coordinates": [
          -65.19705432754483,
          62.99172819647621
        ]
      }
    },
    {
      "type": "Feature",
      "properties": {
        "norad_id": 58700,
        "name": "TIANMU-1 15",
        "group": "weather",
        "lat": -43.29573668976951,
        "lon": -16.77135808259453,
        "alt_km": 496.73153376639493,
        "timestamp": "2025-12-14T20:40:31.410774+00:00",
        "meta_object_name": "TIANMU-1 15",
        "meta_object_id": "2024-004A",
        "meta_epoch": "2025-12-11T12:56:40.540704",
        "meta_mean_motion": 15.24670451,
        "meta_eccentricity": 0.00052437,
        "meta_inclination": 97.4631,
        "meta_ra_of_asc_node": 167.0136,
        "meta_arg_of_pericenter": 303.7498,
        "meta_mean_anomaly": 56.324,
        "meta_ephemeris_type": 0,
        "meta_classification_type": "U",
        "meta_norad_cat_id": 58700,
        "meta_element_set_no": 999,
        "meta_rev_at_epoch": 10716,
        "meta_bstar": 0.00086402607,
        "meta_mean_motion_dot": 0.00021326,
        "meta_mean_motion_ddot": 0,
        "tle_line1": "1 58700U 24004A   25345.53935811  .00021326  00000+0  86403-3 0  9991",
        "tle_line2": "2 58700  97.4631 167.0136 0005243 303.7498  56.3240 15.24670451107164"
      },
      "geometry": {
        "type": "Point",
        "coordinates": [
          -16.77135808259453,
          -43.29573668976951
        ]
      }
    }
  ]
}